start=new Date('2023-04-24T00:00:00.000Z').valueOf();
sats=[{"REV_AT_EPOCH":"1280","TIME_SYSTEM":"UTC","MEAN_ELEMENT_THEORY":"SGP4","RCS_SIZE":"LARGE","COUNTRY_CODE":"US","LAUNCH_DATE":"2023-02-02","REF_FRAME":"TEME","ELEMENT_SET_NO":"999","EPOCH":"2023-04-23T22:00:00.999936","TLE_LINE2":"2 55478  42.9993 265.6777 0001528 282.1946  97.5941 15.36883651 12807","RA_OF_ASC_NODE":"265.6777","SEMIMAJOR_AXIS":"6833.468","OBJECT_ID":"2023-015AF","DECAY_DATE":null,"APOAPSIS":"456.377","OBJECT_TYPE":"PAYLOAD","BSTAR":"-0.02659100000000","CENTER_NAME":"EARTH","ECCENTRICITY":"0.00015280","NORAD_CAT_ID":"55478","ARG_OF_PERICENTER":"282.1946","MEAN_MOTION_DOT":"-0.00900396","GP_ID":"230662520","CLASSIFICATION_TYPE":"U","MEAN_MOTION":"15.36883651","PERIOD":"93.696","PERIAPSIS":"454.289","MEAN_ANOMALY":"97.5941","TLE_LINE1":"1 55478U 23015AF  23113.91667824 -.00900396  00000-0 -26591-1 0  9996","INCLINATION":"42.9993","SITE":"AFETR","FILE":"3892831","EPHEMERIS_TYPE":"0","OBJECT_NAME":"STARLINK-5691","MEAN_MOTION_DDOT":"0.0000000000000"},{"REF_FRAME":"TEME","TLE_LINE2":"2 55479  42.9989 265.7017 0001545 281.4995  88.3707 15.36557604 12800","EPOCH":"2023-04-23T22:00:00.999936","ELEMENT_SET_NO":"999","RCS_SIZE":"LARGE","LAUNCH_DATE":"2023-02-02","COUNTRY_CODE":"US","MEAN_ELEMENT_THEORY":"SGP4","TIME_SYSTEM":"UTC","REV_AT_EPOCH":"1280","TLE_LINE1":"1 55479U 23015AG  23113.91667824 -.00900780  00000-0 -26887-1 0  9992","INCLINATION":"42.9989","SITE":"AFETR","MEAN_ANOMALY":"88.3707","PERIAPSIS":"455.244","MEAN_MOTION_DDOT":"0.0000000000000","FILE":"3892748","OBJECT_NAME":"STARLINK-5688","EPHEMERIS_TYPE":"0","PERIOD":"93.716","MEAN_MOTION":"15.36557604","NORAD_CAT_ID":"55479","ECCENTRICITY":"0.00015450","CENTER_NAME":"EARTH","BSTAR":"-0.02688700000000","CLASSIFICATION_TYPE":"U","GP_ID":"230635377","MEAN_MOTION_DOT":"-0.00900780","ARG_OF_PERICENTER":"281.4995","SEMIMAJOR_AXIS":"6834.435","RA_OF_ASC_NODE":"265.7017","APOAPSIS":"457.356","OBJECT_TYPE":"PAYLOAD","OBJECT_ID":"2023-015AG","DECAY_DATE":null},{"MEAN_MOTION_DDOT":"0.0000000000000","FILE":"3892831","EPHEMERIS_TYPE":"0","OBJECT_NAME":"STARLINK-5690","INCLINATION":"42.9984","TLE_LINE1":"1 55480U 23015AH  23113.89468165  .00001587  00000-0  13525-3 0  9990","SITE":"AFETR","MEAN_ANOMALY":"49.5741","PERIAPSIS":"560.686","PERIOD":"95.890","MEAN_MOTION":"15.01726840","CLASSIFICATION_TYPE":"U","GP_ID":"230664018","MEAN_MOTION_DOT":"0.00001587","ARG_OF_PERICENTER":"310.4990","NORAD_CAT_ID":"55480","CENTER_NAME":"EARTH","ECCENTRICITY":"0.00012780","BSTAR":"0.00013525000000","OBJECT_TYPE":"PAYLOAD","APOAPSIS":"562.460","DECAY_DATE":null,"OBJECT_ID":"2023-015AH","SEMIMAJOR_AXIS":"6939.708","RA_OF_ASC_NODE":"285.5498","EPOCH":"2023-04-23T21:28:20.494560","TLE_LINE2":"2 55480  42.9984 285.5498 0001278 310.4990  49.5741 15.01726840 12574","ELEMENT_SET_NO":"999","REF_FRAME":"TEME","LAUNCH_DATE":"2023-02-02","COUNTRY_CODE":"US","RCS_SIZE":"LARGE","MEAN_ELEMENT_THEORY":"SGP4","TIME_SYSTEM":"UTC","REV_AT_EPOCH":"1257"},{"REF_FRAME":"TEME","ELEMENT_SET_NO":"999","TLE_LINE2":"2 55481  43.0023 290.0121 0001361 267.3219  92.7467 15.02533005 12500","EPOCH":"2023-04-23T16:26:01.456512","RCS_SIZE":"LARGE","LAUNCH_DATE":"2023-02-02","COUNTRY_CODE":"US","MEAN_ELEMENT_THEORY":"SGP4","REV_AT_EPOCH":"1250","TIME_SYSTEM":"UTC","MEAN_ANOMALY":"92.7467","INCLINATION":"43.0023","TLE_LINE1":"1 55481U 23015AJ  23113.68473908  .00000855  00000-0  78363-4 0  9998","SITE":"AFETR","PERIAPSIS":"558.147","MEAN_MOTION_DDOT":"0.0000000000000","FILE":"3892831","OBJECT_NAME":"STARLINK-5694","EPHEMERIS_TYPE":"0","PERIOD":"95.838","MEAN_MOTION":"15.02533005","ECCENTRICITY":"0.00013610","CENTER_NAME":"EARTH","NORAD_CAT_ID":"55481","BSTAR":"0.00007836300000","GP_ID":"230662270","CLASSIFICATION_TYPE":"U","ARG_OF_PERICENTER":"267.3219","MEAN_MOTION_DOT":"0.00000855","SEMIMAJOR_AXIS":"6937.226","RA_OF_ASC_NODE":"290.0121","APOAPSIS":"560.035","OBJECT_TYPE":"PAYLOAD","OBJECT_ID":"2023-015AJ","DECAY_DATE":null},{"PERIOD":"95.838","MEAN_MOTION":"15.02533048","MEAN_MOTION_DDOT":"0.0000000000000","FILE":"3892831","OBJECT_NAME":"STARLINK-5693","EPHEMERIS_TYPE":"0","MEAN_ANOMALY":"82.4187","INCLINATION":"43.0018","TLE_LINE1":"1 55482U 23015AK  23113.66254236 -.00000115  00000-0  65849-5 0  9994","SITE":"AFETR","PERIAPSIS":"558.147","APOAPSIS":"560.034","OBJECT_TYPE":"PAYLOAD","OBJECT_ID":"2023-015AK","DECAY_DATE":null,"SEMIMAJOR_AXIS":"6937.226","RA_OF_ASC_NODE":"289.8440","GP_ID":"230663021","CLASSIFICATION_TYPE":"U","MEAN_MOTION_DOT":"-0.00000115","ARG_OF_PERICENTER":"277.6501","ECCENTRICITY":"0.00013600","CENTER_NAME":"EARTH","NORAD_CAT_ID":"55482","BSTAR":"0.00000658490000","COUNTRY_CODE":"US","LAUNCH_DATE":"2023-02-02","RCS_SIZE":"LARGE","ELEMENT_SET_NO":"999","TLE_LINE2":"2 55482  43.0018 289.8440 0001360 277.6501  82.4187 15.02533048 12504","EPOCH":"2023-04-23T15:54:03.659904","REF_FRAME":"TEME","TIME_SYSTEM":"UTC","REV_AT_EPOCH":"1250","MEAN_ELEMENT_THEORY":"SGP4"},{"APOAPSIS":"560.229","OBJECT_TYPE":"PAYLOAD","DECAY_DATE":null,"OBJECT_ID":"2023-015AL","SEMIMAJOR_AXIS":"6937.241","RA_OF_ASC_NODE":"290.6485","GP_ID":"230633078","CLASSIFICATION_TYPE":"U","ARG_OF_PERICENTER":"272.9163","MEAN_MOTION_DOT":"-0.00000774","ECCENTRICITY":"0.00016180","CENTER_NAME":"EARTH","NORAD_CAT_ID":"55483","BSTAR":"-0.00004227200000","PERIOD":"95.838","MEAN_MOTION":"15.02527934","MEAN_MOTION_DDOT":"0.0000000000000","FILE":"3892688","EPHEMERIS_TYPE":"0","OBJECT_NAME":"STARLINK-5692","MEAN_ANOMALY":"87.1495","INCLINATION":"43.0004","TLE_LINE1":"1 55483U 23015AL  23113.54068325 -.00000774  00000-0 -42272-4 0  9990","SITE":"AFETR","PERIAPSIS":"557.984","REV_AT_EPOCH":"1248","TIME_SYSTEM":"UTC","MEAN_ELEMENT_THEORY":"SGP4","COUNTRY_CODE":"US","LAUNCH_DATE":"2023-02-02","RCS_SIZE":"LARGE","ELEMENT_SET_NO":"999","TLE_LINE2":"2 55483  43.0004 290.6485 0001618 272.9163  87.1495 15.02527934 12485","EPOCH":"2023-04-23T12:58:35.032800","REF_FRAME":"TEME"},{"RA_OF_ASC_NODE":"288.7838","SEMIMAJOR_AXIS":"6937.189","DECAY_DATE":null,"OBJECT_ID":"2023-015AM","OBJECT_TYPE":"PAYLOAD","APOAPSIS":"560.106","BSTAR":"0.00024946000000","NORAD_CAT_ID":"55484","ECCENTRICITY":"0.00015160","CENTER_NAME":"EARTH","ARG_OF_PERICENTER":"268.3437","MEAN_MOTION_DOT":"0.00003168","CLASSIFICATION_TYPE":"U","GP_ID":"230663518","MEAN_MOTION":"15.02544950","PERIOD":"95.837","PERIAPSIS":"558.002","TLE_LINE1":"1 55484U 23015AM  23113.86529134  .00003168  00000-0  24946-3 0  9991","INCLINATION":"43.0013","SITE":"AFETR","MEAN_ANOMALY":"91.7232","FILE":"3892831","EPHEMERIS_TYPE":"0","OBJECT_NAME":"STARLINK-5696","MEAN_MOTION_DDOT":"0.0000000000000","REV_AT_EPOCH":"1253","TIME_SYSTEM":"UTC","MEAN_ELEMENT_THEORY":"SGP4","RCS_SIZE":"LARGE","LAUNCH_DATE":"2023-02-02","COUNTRY_CODE":"US","REF_FRAME":"TEME","TLE_LINE2":"2 55484  43.0013 288.7838 0001516 268.3437  91.7232 15.02544950 12539","EPOCH":"2023-04-23T20:46:01.171776","ELEMENT_SET_NO":"999"},{"LAUNCH_DATE":"2023-02-02","COUNTRY_CODE":"US","RCS_SIZE":"LARGE","ELEMENT_SET_NO":"999","EPOCH":"2023-04-23T21:05:12.651360","TLE_LINE2":"2 55485  43.0006 288.8821 0001508 266.9338  93.1331 15.02543093 12533","REF_FRAME":"TEME","TIME_SYSTEM":"UTC","REV_AT_EPOCH":"1253","MEAN_ELEMENT_THEORY":"SGP4","MEAN_MOTION":"15.02543093","PERIOD":"95.838","OBJECT_NAME":"STARLINK-5695","FILE":"3892831","EPHEMERIS_TYPE":"0","MEAN_MOTION_DDOT":"0.0000000000000","PERIAPSIS":"558.014","MEAN_ANOMALY":"93.1331","TLE_LINE1":"1 55485U 23015AN  23113.87861865  .00012247  00000-0  91991-3 0  9995","SITE":"AFETR","INCLINATION":"43.0006","OBJECT_ID":"2023-015AN","DECAY_DATE":null,"OBJECT_TYPE":"PAYLOAD","APOAPSIS":"560.106","RA_OF_ASC_NODE":"288.8821","SEMIMAJOR_AXIS":"6937.195","ARG_OF_PERICENTER":"266.9338","MEAN_MOTION_DOT":"0.00012247","GP_ID":"230662771","CLASSIFICATION_TYPE":"U","BSTAR":"0.00091991000000","CENTER_NAME":"EARTH","ECCENTRICITY":"0.00015080","NORAD_CAT_ID":"55485"},{"PERIOD":"95.890","MEAN_MOTION":"15.01722718","MEAN_MOTION_DDOT":"0.0000000000000","FILE":"3892831","EPHEMERIS_TYPE":"0","OBJECT_NAME":"STARLINK-5704","MEAN_ANOMALY":"94.8108","SITE":"AFETR","TLE_LINE1":"1 55486U 23015AP  23113.66846870  .00003419  00000-0  27373-3 0  9996","INCLINATION":"43.0025","PERIAPSIS":"560.513","APOAPSIS":"562.659","OBJECT_TYPE":"PAYLOAD","OBJECT_ID":"2023-015AP","DECAY_DATE":null,"SEMIMAJOR_AXIS":"6939.721","RA_OF_ASC_NODE":"288.1596","GP_ID":"230662521","CLASSIFICATION_TYPE":"U","ARG_OF_PERICENTER":"265.2557","MEAN_MOTION_DOT":"0.00003419","CENTER_NAME":"EARTH","ECCENTRICITY":"0.00015460","NORAD_CAT_ID":"55486","BSTAR":"0.00027373000000","LAUNCH_DATE":"2023-02-02","COUNTRY_CODE":"US","RCS_SIZE":"LARGE","ELEMENT_SET_NO":"999","EPOCH":"2023-04-23T16:02:35.695680","TLE_LINE2":"2 55486  43.0025 288.1596 0001546 265.2557  94.8108 15.01722718 12525","REF_FRAME":"TEME","REV_AT_EPOCH":"1252","TIME_SYSTEM":"UTC","MEAN_ELEMENT_THEORY":"SGP4"},{"EPOCH":"2023-04-23T13:09:46.270080","TLE_LINE2":"2 55487  43.0006 290.7079 0001378 272.4667  87.6018 15.02530319 12485","ELEMENT_SET_NO":"999","REF_FRAME":"TEME","COUNTRY_CODE":"US","LAUNCH_DATE":"2023-02-02","RCS_SIZE":"LARGE","MEAN_ELEMENT_THEORY":"SGP4","TIME_SYSTEM":"UTC","REV_AT_EPOCH":"1248","EPHEMERIS_TYPE":"0","FILE":"3892831","OBJECT_NAME":"STARLINK-5701","MEAN_MOTION_DDOT":"0.0000000000000","PERIAPSIS":"558.143","INCLINATION":"43.0006","TLE_LINE1":"1 55487U 23015AQ  23113.54845220 -.00000874  00000-0 -49667-4 0  9997","SITE":"AFETR","MEAN_ANOMALY":"87.6018","MEAN_MOTION":"15.02530319","PERIOD":"95.838","ARG_OF_PERICENTER":"272.4667","MEAN_MOTION_DOT":"-0.00000874","CLASSIFICATION_TYPE":"U","GP_ID":"230663773","BSTAR":"-0.00004966700000","NORAD_CAT_ID":"55487","ECCENTRICITY":"0.00013780","CENTER_NAME":"EARTH","DECAY_DATE":null,"OBJECT_ID":"2023-015AQ","OBJECT_TYPE":"PAYLOAD","APOAPSIS":"560.055","RA_OF_ASC_NODE":"290.7079","SEMIMAJOR_AXIS":"6937.234"}];
